start=new Date('2021-09-13T00:00:00.000Z').valueOf();
sats=[{"MEAN_MOTION_DDOT":"0.0000000000000","OBJECT_ID":"2021-038U","ARG_OF_PERICENTER":"67.5654","LAUNCH_DATE":"2021-05-04","MEAN_ANOMALY":"292.5560","PERIAPSIS":"545.741","EPHEMERIS_TYPE":"0","DECAY_DATE":null,"INCLINATION":"53.0559","PERIOD":"95.592","SITE":"AFETR","OBJECT_NAME":"STARLINK-2589","REV_AT_EPOCH":"2015","RCS_SIZE":"LARGE","TLE_LINE1":"1 48371U 21038U   21255.86030979 -.00000517  00000-0 -15787-4 0  9991","MEAN_ELEMENT_THEORY":"SGP4","FILE":"3114195","GP_ID":"184601148","EPOCH":"2021-09-12T20:38:50.765856","OBJECT_TYPE":"PAYLOAD","RA_OF_ASC_NODE":"148.5987","ECCENTRICITY":"0.00021290","NORAD_CAT_ID":"48371","SEMIMAJOR_AXIS":"6925.350","CENTER_NAME":"EARTH","APOAPSIS":"548.690","MEAN_MOTION":"15.06399471","BSTAR":"-0.00001578700000","COUNTRY_CODE":"US","MEAN_MOTION_DOT":"-0.00000517","ELEMENT_SET_NO":"999","REF_FRAME":"TEME","TLE_LINE2":"2 48371  53.0559 148.5987 0002129  67.5654 292.5560 15.06399471 20153","TIME_SYSTEM":"UTC","CLASSIFICATION_TYPE":"U"},{"OBJECT_NAME":"STARLINK-2572","REV_AT_EPOCH":"2016","SITE":"AFETR","PERIOD":"95.592","FILE":"3114195","RCS_SIZE":"MEDIUM","TLE_LINE1":"1 48372U 21038V   21255.92297311 -.00000109  00000-0  11596-4 0  9994","MEAN_ELEMENT_THEORY":"SGP4","ARG_OF_PERICENTER":"70.9243","LAUNCH_DATE":"2021-05-04","MEAN_ANOMALY":"289.1973","MEAN_MOTION_DDOT":"0.0000000000000","OBJECT_ID":"2021-038V","INCLINATION":"53.0558","EPHEMERIS_TYPE":"0","PERIAPSIS":"545.768","DECAY_DATE":null,"MEAN_MOTION_DOT":"-0.00000109","COUNTRY_CODE":"US","MEAN_MOTION":"15.06398540","BSTAR":"0.00001159600000","TIME_SYSTEM":"UTC","TLE_LINE2":"2 48372  53.0558 148.3154 0002094  70.9243 289.1973 15.06398540 20167","CLASSIFICATION_TYPE":"U","ELEMENT_SET_NO":"999","REF_FRAME":"TEME","EPOCH":"2021-09-12T22:09:04.876704","RA_OF_ASC_NODE":"148.3154","OBJECT_TYPE":"PAYLOAD","ECCENTRICITY":"0.00020940","GP_ID":"184601335","APOAPSIS":"548.668","SEMIMAJOR_AXIS":"6925.353","NORAD_CAT_ID":"48372","CENTER_NAME":"EARTH"},{"TIME_SYSTEM":"UTC","TLE_LINE2":"2 48373  53.0570 148.3336 0001983  66.2537 293.8660 15.06396992 20168","CLASSIFICATION_TYPE":"U","REF_FRAME":"TEME","ELEMENT_SET_NO":"999","COUNTRY_CODE":"US","MEAN_MOTION_DOT":"0.00001575","BSTAR":"0.00012460000000","MEAN_MOTION":"15.06396992","APOAPSIS":"548.596","CENTER_NAME":"EARTH","NORAD_CAT_ID":"48373","SEMIMAJOR_AXIS":"6925.358","ECCENTRICITY":"0.00019830","EPOCH":"2021-09-12T22:03:46.441728","RA_OF_ASC_NODE":"148.3336","OBJECT_TYPE":"PAYLOAD","GP_ID":"184601565","FILE":"3114195","TLE_LINE1":"1 48373U 21038W   21255.91928752  .00001575  00000-0  12460-3 0  9991","MEAN_ELEMENT_THEORY":"SGP4","RCS_SIZE":"LARGE","REV_AT_EPOCH":"2016","OBJECT_NAME":"STARLINK-2609","SITE":"AFETR","PERIOD":"95.592","INCLINATION":"53.0570","DECAY_DATE":null,"PERIAPSIS":"545.849","EPHEMERIS_TYPE":"0","LAUNCH_DATE":"2021-05-04","ARG_OF_PERICENTER":"66.2537","MEAN_ANOMALY":"293.8660","OBJECT_ID":"2021-038W","MEAN_MOTION_DDOT":"0.0000000000000"},{"PERIAPSIS":"545.831","EPHEMERIS_TYPE":"0","DECAY_DATE":null,"INCLINATION":"53.0557","MEAN_MOTION_DDOT":"0.0000000000000","OBJECT_ID":"2021-038X","LAUNCH_DATE":"2021-05-04","ARG_OF_PERICENTER":"68.9629","MEAN_ANOMALY":"291.1577","RCS_SIZE":"LARGE","MEAN_ELEMENT_THEORY":"SGP4","TLE_LINE1":"1 48374U 21038X   21255.91560166 -.00000216  00000-0  44189-5 0  9990","FILE":"3114195","PERIOD":"95.593","SITE":"AFETR","OBJECT_NAME":"STARLINK-2604","REV_AT_EPOCH":"2016","SEMIMAJOR_AXIS":"6925.374","NORAD_CAT_ID":"48374","CENTER_NAME":"EARTH","APOAPSIS":"548.647","GP_ID":"184601458","EPOCH":"2021-09-12T21:58:27.983424","RA_OF_ASC_NODE":"148.3471","OBJECT_TYPE":"PAYLOAD","ECCENTRICITY":"0.00020330","ELEMENT_SET_NO":"999","REF_FRAME":"TEME","TIME_SYSTEM":"UTC","TLE_LINE2":"2 48374  53.0557 148.3471 0002033  68.9629 291.1577 15.06391795 20166","CLASSIFICATION_TYPE":"U","MEAN_MOTION":"15.06391795","BSTAR":"0.00000441890000","MEAN_MOTION_DOT":"-0.00000216","COUNTRY_CODE":"US"},{"APOAPSIS":"548.659","CENTER_NAME":"EARTH","NORAD_CAT_ID":"48375","SEMIMAJOR_AXIS":"6925.347","ECCENTRICITY":"0.00020900","EPOCH":"2021-09-12T21:53:09.320352","OBJECT_TYPE":"PAYLOAD","RA_OF_ASC_NODE":"148.3667","GP_ID":"184601472","TLE_LINE2":"2 48375  53.0563 148.3667 0002090  66.1242 293.9966 15.06400510 20163","TIME_SYSTEM":"UTC","CLASSIFICATION_TYPE":"U","REF_FRAME":"TEME","ELEMENT_SET_NO":"999","COUNTRY_CODE":"US","MEAN_MOTION_DOT":"0.00001231","BSTAR":"0.00010154000000","MEAN_MOTION":"15.06400510","INCLINATION":"53.0563","DECAY_DATE":null,"EPHEMERIS_TYPE":"0","PERIAPSIS":"545.765","LAUNCH_DATE":"2021-05-04","ARG_OF_PERICENTER":"66.1242","MEAN_ANOMALY":"293.9966","OBJECT_ID":"2021-038Y","MEAN_MOTION_DDOT":"0.0000000000000","FILE":"3114195","MEAN_ELEMENT_THEORY":"SGP4","TLE_LINE1":"1 48375U 21038Y   21255.91191343  .00001231  00000-0  10154-3 0  9998","RCS_SIZE":"LARGE","REV_AT_EPOCH":"2016","OBJECT_NAME":"STARLINK-2603","SITE":"AFETR","PERIOD":"95.592"},{"TLE_LINE2":"2 48376  53.0570 148.3817 0001880  69.7572 290.3619 15.06399627 20162","TIME_SYSTEM":"UTC","CLASSIFICATION_TYPE":"U","REF_FRAME":"TEME","ELEMENT_SET_NO":"999","COUNTRY_CODE":"US","MEAN_MOTION_DOT":"0.00001116","BSTAR":"0.00009381300000","MEAN_MOTION":"15.06399627","APOAPSIS":"548.517","CENTER_NAME":"EARTH","SEMIMAJOR_AXIS":"6925.350","NORAD_CAT_ID":"48376","ECCENTRICITY":"0.00018800","EPOCH":"2021-09-12T21:47:50.995968","RA_OF_ASC_NODE":"148.3817","OBJECT_TYPE":"PAYLOAD","GP_ID":"184601659","FILE":"3114195","MEAN_ELEMENT_THEORY":"SGP4","TLE_LINE1":"1 48376U 21038Z   21255.90822912  .00001116  00000-0  93813-4 0  9997","RCS_SIZE":"LARGE","REV_AT_EPOCH":"2016","OBJECT_NAME":"STARLINK-2610","PERIOD":"95.592","SITE":"AFETR","INCLINATION":"53.0570","DECAY_DATE":null,"EPHEMERIS_TYPE":"0","PERIAPSIS":"545.913","ARG_OF_PERICENTER":"69.7572","LAUNCH_DATE":"2021-05-04","MEAN_ANOMALY":"290.3619","OBJECT_ID":"2021-038Z","MEAN_MOTION_DDOT":"0.0000000000000"},{"MEAN_MOTION_DOT":"-0.00000198","COUNTRY_CODE":"US","BSTAR":"0.00000560440000","MEAN_MOTION":"15.06392454","TLE_LINE2":"2 48377  53.0553 148.4023 0002240  73.7713 286.3523 15.06392454 20167","TIME_SYSTEM":"UTC","CLASSIFICATION_TYPE":"U","REF_FRAME":"TEME","ELEMENT_SET_NO":"999","ECCENTRICITY":"0.00022400","EPOCH":"2021-09-12T21:42:32.902272","OBJECT_TYPE":"PAYLOAD","RA_OF_ASC_NODE":"148.4023","GP_ID":"184601242","APOAPSIS":"548.788","CENTER_NAME":"EARTH","NORAD_CAT_ID":"48377","SEMIMAJOR_AXIS":"6925.372","REV_AT_EPOCH":"2016","OBJECT_NAME":"STARLINK-2499","PERIOD":"95.593","SITE":"AFETR","FILE":"3114195","MEAN_ELEMENT_THEORY":"SGP4","TLE_LINE1":"1 48377U 21038AA  21255.90454748 -.00000198  00000-0  56044-5 0  9992","RCS_SIZE":"LARGE","ARG_OF_PERICENTER":"73.7713","LAUNCH_DATE":"2021-05-04","MEAN_ANOMALY":"286.3523","OBJECT_ID":"2021-038AA","MEAN_MOTION_DDOT":"0.0000000000000","INCLINATION":"53.0553","DECAY_DATE":null,"EPHEMERIS_TYPE":"0","PERIAPSIS":"545.685"},{"DECAY_DATE":null,"PERIAPSIS":"545.716","EPHEMERIS_TYPE":"0","INCLINATION":"53.0560","OBJECT_ID":"2021-038AB","MEAN_MOTION_DDOT":"0.0000000000000","MEAN_ANOMALY":"287.2718","ARG_OF_PERICENTER":"72.8510","LAUNCH_DATE":"2021-05-04","TLE_LINE1":"1 48378U 21038AB  21255.90085925  .00001540  00000-0  12227-3 0  9994","MEAN_ELEMENT_THEORY":"SGP4","RCS_SIZE":"LARGE","FILE":"3114195","SITE":"AFETR","PERIOD":"95.592","REV_AT_EPOCH":"2016","OBJECT_NAME":"STARLINK-2526","CENTER_NAME":"EARTH","NORAD_CAT_ID":"48378","SEMIMAJOR_AXIS":"6925.357","APOAPSIS":"548.728","GP_ID":"184601135","ECCENTRICITY":"0.00021750","OBJECT_TYPE":"PAYLOAD","RA_OF_ASC_NODE":"148.4235","EPOCH":"2021-09-12T21:37:14.239200","REF_FRAME":"TEME","ELEMENT_SET_NO":"999","CLASSIFICATION_TYPE":"U","TIME_SYSTEM":"UTC","TLE_LINE2":"2 48378  53.0560 148.4235 0002175  72.8510 287.2718 15.06397170 20169","BSTAR":"0.00012227000000","MEAN_MOTION":"15.06397170","COUNTRY_CODE":"US","MEAN_MOTION_DOT":"0.00001540"},{"REF_FRAME":"TEME","ELEMENT_SET_NO":"999","CLASSIFICATION_TYPE":"U","TIME_SYSTEM":"UTC","TLE_LINE2":"2 48379  53.0568 148.4428 0001952  74.9179 285.2025 15.06402332 20164","BSTAR":"-0.00002072100000","MEAN_MOTION":"15.06402332","COUNTRY_CODE":"US","MEAN_MOTION_DOT":"-0.00000590","CENTER_NAME":"EARTH","SEMIMAJOR_AXIS":"6925.341","NORAD_CAT_ID":"48379","APOAPSIS":"548.558","GP_ID":"184601149","ECCENTRICITY":"0.00019520","OBJECT_TYPE":"PAYLOAD","RA_OF_ASC_NODE":"148.4428","EPOCH":"2021-09-12T21:31:55.197696","MEAN_ELEMENT_THEORY":"SGP4","TLE_LINE1":"1 48379U 21038AC  21255.89716664 -.00000590  00000-0 -20721-4 0  9999","RCS_SIZE":"LARGE","FILE":"3114195","SITE":"AFETR","PERIOD":"95.592","REV_AT_EPOCH":"2016","OBJECT_NAME":"STARLINK-2612","DECAY_DATE":null,"PERIAPSIS":"545.855","EPHEMERIS_TYPE":"0","INCLINATION":"53.0568","OBJECT_ID":"2021-038AC","MEAN_MOTION_DDOT":"0.0000000000000","MEAN_ANOMALY":"285.2025","LAUNCH_DATE":"2021-05-04","ARG_OF_PERICENTER":"74.9179"},{"ELEMENT_SET_NO":"999","REF_FRAME":"TEME","CLASSIFICATION_TYPE":"U","TIME_SYSTEM":"UTC","TLE_LINE2":"2 48380  53.0553 148.3196 0001952  75.6765 284.4441 15.06396184 20160","MEAN_MOTION":"15.06396184","BSTAR":"-0.00013522000000","MEAN_MOTION_DOT":"-0.00002295","COUNTRY_CODE":"US","NORAD_CAT_ID":"48380","SEMIMAJOR_AXIS":"6925.360","CENTER_NAME":"EARTH","APOAPSIS":"548.577","GP_ID":"184601336","OBJECT_TYPE":"PAYLOAD","RA_OF_ASC_NODE":"148.3196","EPOCH":"2021-09-12T22:07:43.379904","ECCENTRICITY":"0.00019520","RCS_SIZE":"LARGE","MEAN_ELEMENT_THEORY":"SGP4","TLE_LINE1":"1 48380U 21038AD  21255.92202986 -.00002295  00000-0 -13522-3 0  9996","FILE":"3114195","SITE":"AFETR","PERIOD":"95.592","OBJECT_NAME":"STARLINK-2614","REV_AT_EPOCH":"2016","EPHEMERIS_TYPE":"0","PERIAPSIS":"545.873","DECAY_DATE":null,"INCLINATION":"53.0553","MEAN_MOTION_DDOT":"0.0000000000000","OBJECT_ID":"2021-038AD","MEAN_ANOMALY":"284.4441","ARG_OF_PERICENTER":"75.6765","LAUNCH_DATE":"2021-05-04"}];
